{"type": "FeatureCollection", "features": [ {"type": "Feature", "properties": {"norad_id": 41774, "name": "SKYSAT-C3", "group": "resource", "lat": -57.420059092845335, "lon": 33.894043653686225, "alt_km": 441.16514647492204, "timestamp": "2025-12-15T07:02:37.271879+00:00", "meta": {"OBJECT_NAME": "SKYSAT-C3", "OBJECT_ID": "2016-058E", "EPOCH": "2025-12-14T15:44:43.646208", "MEAN_MOTION": 15.4447612, "ECCENTRICITY": 0.00017544, "INCLINATION": 96.9306, "RA_OF_ASC_NODE": 22.3127, "ARG_OF_PERICENTER": 108.895, "MEAN_ANOMALY": 251.249, "EPHEMERIS_TYPE": 0, "CLASSIFICATION_TYPE": "U", "NORAD_CAT_ID": 41774, "ELEMENT_SET_NO": 999, "REV_AT_EPOCH": 51755, "BSTAR": 0.00033836683, "MEAN_MOTION_DOT": 0.00015602, "MEAN_MOTION_DDOT": 0}, "tle": {"line1": "1 41774U 16058E   25348.65606072  .00015602  00000+0  33837-3 0  9997", "line2": "2 41774  96.9306  22.3127 0001754 108.8950 251.2490 15.44476120517553"}}, "geometry": {"type": "Point", "coordinates": [33.894043653686225, -57.420059092845335]}}, {"type": "Feature", "properties": {"norad_id": 41785, "name": "ALSAT 1B", "group": "resource", "lat": -36.086925944289064, "lon": 175.25298594515075, "alt_km": 664.5992980184565, "timestamp": "2025-12-15T07:02:37.271889+00:00", "meta": {"OBJECT_NAME": "ALSAT 1B", "OBJECT_ID": "2016-059C", "EPOCH": "2025-12-14T23:32:21.952896", "MEAN_MOTION": 14.72078866, "ECCENTRICITY": 0.00107695, "INCLINATION": 97.7821, "RA_OF_ASC_NODE": 0.6743, "ARG_OF_PERICENTER": 97.0072, "MEAN_ANOMALY": 263.2361, "EPHEMERIS_TYPE": 0, "CLASSIFICATION_TYPE": "U", "NORAD_CAT_ID": 41785, "ELEMENT_SET_NO": 999, "REV_AT_EPOCH": 49347, "BSTAR": 0.00011333064, "MEAN_MOTION_DOT": 6.66e-06, "MEAN_MOTION_DDOT": 0}, "tle": {"line1": "1 41785U 16059C   25348.98080964  .00000666  00000+0  11333-3 0  9993", "line2": "2 41785  97.7821   0.6743 0010769  97.0072 263.2361 14.72078866493478"}}, "geometry": {"type": "Point", "coordinates": [175.25298594515075, -36.086925944289064]}}, {"type": "Feature", "properties": {"norad_id": 41787, "name": "PATHFINDER 1", "group": "resource", "lat": -69.7625606280263, "lon": 150.08035858220387, "alt_km": 698.0363097840627, "timestamp": "2025-12-15T07:02:37.271899+00:00", "meta": {"OBJECT_NAME": "PATHFINDER 1", "OBJECT_ID": "2016-059E", "EPOCH": "2025-12-14T21:43:14.054592", "MEAN_MOTION": 14.67324685, "ECCENTRICITY": 0.00300023, "INCLINATION": 97.8138, "RA_OF_ASC_NODE": 351.5781, "ARG_OF_PERICENTER": 74.6527, "MEAN_ANOMALY": 285.799, "EPHEMERIS_TYPE": 0, "CLASSIFICATION_TYPE": "U", "NORAD_CAT_ID": 41787, "ELEMENT_SET_NO": 999, "REV_AT_EPOCH": 49268, "BSTAR": 0.00015991593, "MEAN_MOTION_DOT": 8.62e-06, "MEAN_MOTION_DDOT": 0}, "tle": {"line1": "1 41787U 16059E   25348.90502378  .00000862  00000+0  15992-3 0  9998", "line2": "2 41787  97.8138 351.5781 0030002  74.6527 285.7990 14.67324685492686"}}, "geometry": {"type": "Point", "coordinates": [150.08035858220387, -69.7625606280263]}}, {"type": "Feature", "properties": {"norad_id": 41790, "name": "SCATSAT 1", "group": "resource", "lat": -9.968836978881825, "lon": 47.438529298298924, "alt_km": 662.0585533111616, "timestamp": "2025-12-15T07:02:37.271909+00:00", "meta": {"OBJECT_NAME": "SCATSAT 1", "OBJECT_ID": "2016-059H", "EPOCH": "2025-12-14T22:58:14.097504", "MEAN_MOTION": 14.78945462, "ECCENTRICITY": 0.00563607, "INCLINATION": 98.1466, "RA_OF_ASC_NODE": 45.6552, "ARG_OF_PERICENTER": 120.9819, "MEAN_ANOMALY": 239.6946, "EPHEMERIS_TYPE": 0, "CLASSIFICATION_TYPE": "U", "NORAD_CAT_ID": 41790, "ELEMENT_SET_NO": 999, "REV_AT_EPOCH": 7435, "BSTAR": 0.00019277667, "MEAN_MOTION_DOT": 1.404e-05, "MEAN_MOTION_DDOT": 0}, "tle": {"line1": "1 41790U 16059H   25348.95710761  .00001404  00000+0  19278-3 0  9998", "line2": "2 41790  98.1466  45.6552 0056360 120.9819 239.6946 14.78945462 74352"}}, "geometry": {"type": "Point", "coordinates": [47.438529298298924, -9.968836978881825]}}, {"type": "Feature", "properties": {"norad_id": 41875, "name": "GOKTURK 1A", "group": "resource", "lat": -71.43792060678784, "lon": -93.13812547691298, "alt_km": 692.2595444294557, "timestamp": "2025-12-15T07:02:37.271919+00:00", "meta": {"OBJECT_NAME": "GOKTURK 1A", "OBJECT_ID": "2016-073A", "EPOCH": "2025-12-14T23:10:11.201952", "MEAN_MOTION": 14.62784168, "ECCENTRICITY": 0.00012359, "INCLINATION": 98.1426, "RA_OF_ASC_NODE": 241.301, "ARG_OF_PERICENTER": 80.4017, "MEAN_ANOMALY": 279.7325, "EPHEMERIS_TYPE": 0, "CLASSIFICATION_TYPE": "U", "NORAD_CAT_ID": 41875, "ELEMENT_SET_NO": 999, "REV_AT_EPOCH": 48189, "BSTAR": 0.00017261321, "MEAN_MOTION_DOT": 8.34e-06, "MEAN_MOTION_DDOT": 0}, "tle": {"line1": "1 41875U 16073A   25348.96540743  .00000834  00000+0  17261-3 0  9996", "line2": "2 41875  98.1426 241.3010 0001235  80.4017 279.7325 14.62784168481891"}}, "geometry": {"type": "Point", "coordinates": [-93.13812547691298, -71.43792060678784]}}, {"type": "Feature", "properties": {"norad_id": 41877, "name": "RESOURCESAT-2A", "group": "resource", "lat": -41.756988108620895, "lon": 67.06066887204723, "alt_km": 826.2510622180944, "timestamp": "2025-12-15T07:02:37.271929+00:00", "meta": {"OBJECT_NAME": "RESOURCESAT-2A", "OBJECT_ID": "2016-074A", "EPOCH": "2025-12-14T22:47:47.967072", "MEAN_MOTION": 14.21601348, "ECCENTRICITY": 0.0001196, "INCLINATION": 98.7754, "RA_OF_ASC_NODE": 58.7927, "ARG_OF_PERICENTER": 244.4927, "MEAN_ANOMALY": 115.6127, "EPHEMERIS_TYPE": 0, "CLASSIFICATION_TYPE": "U", "NORAD_CAT_ID": 41877, "ELEMENT_SET_NO": 999, "REV_AT_EPOCH": 46812, "BSTAR": 0.00016114914, "MEAN_MOTION_DOT": 3.09e-06, "MEAN_MOTION_DDOT": 0}, "tle": {"line1": "1 41877U 16074A   25348.94986073  .00000309  00000+0  16115-3 0  9991", "line2": "2 41877  98.7754  58.7927 0001196 244.4927 115.6127 14.21601348468120"}}, "geometry": {"type": "Point", "coordinates": [67.06066887204723, -41.756988108620895]}}, {"type": "Feature", "properties": {"norad_id": 41948, "name": "CARTOSAT-2D", "group": "resource", "lat": 39.04897432367924, "lon": -127.16340187071144, "alt_km": 501.86628608666706, "timestamp": "2025-12-15T07:02:37.271939+00:00", "meta": {"OBJECT_NAME": "CARTOSAT-2D", "OBJECT_ID": "2017-008A", "EPOCH": "2025-12-14T22:31:26.520096", "MEAN_MOTION": 15.19285015, "ECCENTRICITY": 0.00048109, "INCLINATION": 97.4393, "RA_OF_ASC_NODE": 46.4024, "ARG_OF_PERICENTER": 154.3105, "MEAN_ANOMALY": 205.837, "EPHEMERIS_TYPE": 0, "CLASSIFICATION_TYPE": "U", "NORAD_CAT_ID": 41948, "ELEMENT_SET_NO": 999, "REV_AT_EPOCH": 48960, "BSTAR": 0.00020013849, "MEAN_MOTION_DOT": 4.155e-05, "MEAN_MOTION_DDOT": 0}, "tle": {"line1": "1 41948U 17008A   25348.93850139  .00004155  00000+0  20014-3 0  9996", "line2": "2 41948  97.4393  46.4024 0004810 154.3105 205.8370 15.19285015489604"}}, "geometry": {"type": "Point", "coordinates": [-127.16340187071144, 39.04897432367924]}}, {"type": "Feature", "properties": {"norad_id": 42063, "name": "SENTINEL-2B", "group": "resource", "lat": 10.6117717905447, "lon": 60.0840969558076, "alt_km": 790.3180905901954, "timestamp": "2025-12-15T07:02:37.271949+00:00", "meta": {"OBJECT_NAME": "SENTINEL-2B", "OBJECT_ID": "2017-013A", "EPOCH": "2025-12-14T22:36:07.409952", "MEAN_MOTION": 14.30817201, "ECCENTRICITY": 0.00011629, "INCLINATION": 98.5713, "RA_OF_ASC_NODE": 61.3566, "ARG_OF_PERICENTER": 92.6409, "MEAN_ANOMALY": 267.4907, "EPHEMERIS_TYPE": 0, "CLASSIFICATION_TYPE": "U", "NORAD_CAT_ID": 42063, "ELEMENT_SET_NO": 999, "REV_AT_EPOCH": 45829, "BSTAR": 9.0811013e-05, "MEAN_MOTION_DOT": 1.94e-06, "MEAN_MOTION_DDOT": 0}, "tle": {"line1": "1 42063U 17013A   25348.94175243  .00000194  00000+0  90811-4 0  9990", "line2": "2 42063  98.5713  61.3566 0001162  92.6409 267.4907 14.30817201458297"}}, "geometry": {"type": "Point", "coordinates": [60.0840969558076, 10.6117717905447]}}, {"type": "Feature", "properties": {"norad_id": 42767, "name": "CARTOSAT-2E", "group": "resource", "lat": 50.09074455061547, "lon": 37.83811448357044, "alt_km": 505.019083129866, "timestamp": "2025-12-15T07:02:37.271959+00:00", "meta": {"OBJECT_NAME": "CARTOSAT-2E", "OBJECT_ID": "2017-036C", "EPOCH": "2025-12-14T22:55:03.024768", "MEAN_MOTION": 15.19225854, "ECCENTRICITY": 0.00020084, "INCLINATION": 97.4563, "RA_OF_ASC_NODE": 46.5126, "ARG_OF_PERICENTER": 227.2236, "MEAN_ANOMALY": 132.883, "EPHEMERIS_TYPE": 0, "CLASSIFICATION_TYPE": "U", "NORAD_CAT_ID": 42767, "ELEMENT_SET_NO": 999, "REV_AT_EPOCH": 47017, "BSTAR": 0.00022420827, "MEAN_MOTION_DOT": 4.654e-05, "MEAN_MOTION_DDOT": 0}, "tle": {"line1": "1 42767U 17036C   25348.95489612  .00004654  00000+0  22421-3 0  9991", "line2": "2 42767  97.4563  46.5126 0002008 227.2236 132.8830 15.19225854470176"}}, "geometry": {"type": "Point", "coordinates": [37.83811448357044, 50.09074455061547]}}, {"type": "Feature", "properties": {"norad_id": 42920, "name": "FORMOSAT-5", "group": "resource", "lat": -18.047764916502345, "lon": -119.14628707655969, "alt_km": 727.1941983549195, "timestamp": "2025-12-15T07:02:37.271971+00:00", "meta": {"OBJECT_NAME": "FORMOSAT-5", "OBJECT_ID": "2017-049A", "EPOCH": "2025-12-14T21:51:26.699616", "MEAN_MOTION": 14.51006692, "ECCENTRICITY": 0.00098254, "INCLINATION": 98.2452, "RA_OF_ASC_NODE": 63.1867, "ARG_OF_PERICENTER": 288.0428, "MEAN_ANOMALY": 71.9696, "EPHEMERIS_TYPE": 0, "CLASSIFICATION_TYPE": "U", "NORAD_CAT_ID": 42920, "ELEMENT_SET_NO": 999, "REV_AT_EPOCH": 43995, "BSTAR": 7.2539659e-05, "MEAN_MOTION_DOT": 2.43e-06, "MEAN_MOTION_DDOT": 0}, "tle": {"line1": "1 42920U 17049A   25348.91072569  .00000243  00000+0  72540-4 0  9999", "line2": "2 42920  98.2452  63.1867 0009825 288.0428  71.9696 14.51006692439958"}}, "geometry": {"type": "Point", "coordinates": [-119.14628707655969, -18.047764916502345]}}]}